{
  "norad_id": 48400,
  "name": "STARLINK-2576",
  "history": [
    {
      "epoch": "2026-04-17T19:35:06.628416Z",
      "apogee_km": 475.9243302370169,
      "perigee_km": 474.532137623396,
      "latitude_deg": 5.421533669723905e-06,
      "longitude_deg": 11.152208858837593,
      "height_km": 476.0931690988748,
      "semi_major_axis_km": 6853.365233930206,
      "eccentricity": 0.00010157,
      "inclination_deg": 53.1573,
      "raan_deg": 150.8738,
      "arg_perigee_deg": 87.2668,
      "mean_anomaly_deg": 272.8449,
      "mean_motion_rev_day": 15.30195591
    },
    {
      "epoch": "2026-04-18T19:05:54.483072Z",
      "apogee_km": 476.0134670379666,
      "perigee_km": 474.41389498901844,
      "latitude_deg": 4.683637945783839e-05,
      "longitude_deg": 12.936988894435009,
      "height_km": 476.11843122791083,
      "semi_major_axis_km": 6853.350681013492,
      "eccentricity": 0.0001167,
      "inclination_deg": 53.1579,
      "raan_deg": 146.3236,
      "arg_perigee_deg": 90.4848,
      "mean_anomaly_deg": 269.6287,
      "mean_motion_rev_day": 15.30200465
    },
    {
      "epoch": "2026-04-19T09:12:22.586400Z",
      "apogee_km": 475.86418814282115,
      "perigee_km": 474.49530665569637,
      "latitude_deg": -9.731099301906921e-06,
      "longitude_deg": 158.00906203747977,
      "height_km": 475.9510112611532,
      "semi_major_axis_km": 6853.316747399259,
      "eccentricity": 9.987e-05,
      "inclination_deg": 53.1579,
      "raan_deg": 143.5922,
      "arg_perigee_deg": 79.308,
      "mean_anomaly_deg": 280.8033,
      "mean_motion_rev_day": 15.3021183
    },
    {
      "epoch": "2026-04-20T08:43:10.942176Z",
      "apogee_km": 476.7973516452148,
      "perigee_km": 473.6626215855367,
      "latitude_deg": 4.630573829699443e-05,
      "longitude_deg": 159.78905746545593,
      "height_km": 476.048513511376,
      "semi_major_axis_km": 6853.366986615375,
      "eccentricity": 0.0002287,
      "inclination_deg": 53.1586,
      "raan_deg": 139.0393,
      "arg_perigee_deg": 87.1501,
      "mean_anomaly_deg": 272.9762,
      "mean_motion_rev_day": 15.30195004
    },
    {
      "epoch": "2026-04-21T20:46:24.680352Z",
      "apogee_km": 475.7733089200101,
      "perigee_km": 474.7028117355867,
      "latitude_deg": 1.2967671713691191e-05,
      "longitude_deg": -29.47369106449449,
      "height_km": 475.8050490681515,
      "semi_major_axis_km": 6853.375060327798,
      "eccentricity": 7.81e-05,
      "inclination_deg": 53.1587,
      "raan_deg": 132.0645,
      "arg_perigee_deg": 51.6886,
      "mean_anomaly_deg": 308.4185,
      "mean_motion_rev_day": 15.301923
    },
    {
      "epoch": "2026-04-22T12:26:57.441696Z",
      "apogee_km": 475.9934316980052,
      "perigee_km": 474.5473627371912,
      "latitude_deg": 1.4856982569705017e-05,
      "longitude_deg": 91.71432225400123,
      "height_km": 475.9685069813935,
      "semi_major_axis_km": 6853.4073972175975,
      "eccentricity": 0.0001055,
      "inclination_deg": 53.1591,
      "raan_deg": 129.0328,
      "arg_perigee_deg": 73.9246,
      "mean_anomaly_deg": 286.1871,
      "mean_motion_rev_day": 15.3018147
    },
    {
      "epoch": "2026-04-23T00:59:22.847424Z",
      "apogee_km": 475.9542215832362,
      "perigee_km": 474.5232367309891,
      "latitude_deg": -5.074687940771097e-05,
      "longitude_deg": -99.33390060315813,
      "height_km": 475.8853569980354,
      "semi_major_axis_km": 6853.375729157113,
      "eccentricity": 0.0001044,
      "inclination_deg": 53.1602,
      "raan_deg": 126.6055,
      "arg_perigee_deg": 69.3886,
      "mean_anomaly_deg": 290.7226,
      "mean_motion_rev_day": 15.30192076
    },
    {
      "epoch": "2026-04-24T06:46:23.400192Z",
      "apogee_km": 475.9946594653975,
      "perigee_km": 474.4855458273951,
      "latitude_deg": -5.390204399925368e-05,
      "longitude_deg": 166.92382754468824,
      "height_km": 476.18292776577584,
      "semi_major_axis_km": 6853.377102646396,
      "eccentricity": 0.0001101,
      "inclination_deg": 53.1597,
      "raan_deg": 120.8387,
      "arg_perigee_deg": 93.3845,
      "mean_anomaly_deg": 266.7281,
      "mean_motion_rev_day": 15.30191616
    },
    {
      "epoch": "2026-04-25T06:17:10.203360Z",
      "apogee_km": 475.94876851000026,
      "perigee_km": 474.42321881161115,
      "latitude_deg": 4.1127875938383385e-05,
      "longitude_deg": 168.7135398505354,
      "height_km": 476.0015220204912,
      "semi_major_axis_km": 6853.322993660806,
      "eccentricity": 0.0001113,
      "inclination_deg": 53.1599,
      "raan_deg": 116.289,
      "arg_perigee_deg": 83.7714,
      "mean_anomaly_deg": 276.3414,
      "mean_motion_rev_day": 15.30209738
    },
    {
      "epoch": "2026-04-26T16:46:20.891424Z",
      "apogee_km": 476.0647912860177,
      "perigee_km": 474.37228660211986,
      "latitude_deg": -4.76740068464911e-06,
      "longitude_deg": 3.3290702951910545,
      "height_km": 476.0779502966196,
      "semi_major_axis_km": 6853.355538944068,
      "eccentricity": 0.00012348,
      "inclination_deg": 53.16,
      "raan_deg": 109.6154,
      "arg_perigee_deg": 87.3779,
      "mean_anomaly_deg": 272.7363,
      "mean_motion_rev_day": 15.30198838
    },
    {
      "epoch": "2026-04-27T16:17:08.563776Z",
      "apogee_km": 476.1767114528602,
      "perigee_km": 474.30573919734616,
      "latitude_deg": -1.027112820100996e-05,
      "longitude_deg": 5.1124775706269645,
      "height_km": 476.1304854009999,
      "semi_major_axis_km": 6853.378225325103,
      "eccentricity": 0.0001365,
      "inclination_deg": 53.1602,
      "raan_deg": 105.0631,
      "arg_perigee_deg": 89.4669,
      "mean_anomaly_deg": 270.6488,
      "mean_motion_rev_day": 15.3019124
    },
    {
      "epoch": "2026-04-28T07:57:42.026688Z",
      "apogee_km": 476.10036129450964,
      "perigee_km": 474.4528006696419,
      "latitude_deg": -2.7913602160676985e-05,
      "longitude_deg": 126.29634724572936,
      "height_km": 476.31968766987507,
      "semi_major_axis_km": 6853.4135809820755,
      "eccentricity": 0.0001202,
      "inclination_deg": 53.1604,
      "raan_deg": 102.0302,
      "arg_perigee_deg": 100.1292,
      "mean_anomaly_deg": 259.9844,
      "mean_motion_rev_day": 15.30179399
    },
    {
      "epoch": "2026-04-29T07:28:29.311968Z",
      "apogee_km": 476.0909221356933,
      "perigee_km": 474.3422204384433,
      "latitude_deg": 5.5039313919157134e-05,
      "longitude_deg": 128.08363746649147,
      "height_km": 476.2458169866994,
      "semi_major_axis_km": 6853.353571287068,
      "eccentricity": 0.00012758,
      "inclination_deg": 53.1613,
      "raan_deg": 97.4801,
      "arg_perigee_deg": 98.6188,
      "mean_anomaly_deg": 261.4958,
      "mean_motion_rev_day": 15.30199497
    },
    {
      "epoch": "2026-04-30T14:49:33.593088Z",
      "apogee_km": 475.97359127218715,
      "perigee_km": 474.48586242312285,
      "latitude_deg": 3.211324463526814e-05,
      "longitude_deg": 10.458534683192982,
      "height_km": 476.196759655095,
      "semi_major_axis_km": 6853.366726847655,
      "eccentricity": 0.00010854,
      "inclination_deg": 53.1613,
      "raan_deg": 91.4104,
      "arg_perigee_deg": 95.289,
      "mean_anomaly_deg": 264.8235,
      "mean_motion_rev_day": 15.30195091
    },
    {
      "epoch": "2026-05-02T04:26:50.021088Z",
      "apogee_km": 475.93294317177424,
      "perigee_km": 474.5526724784795,
      "latitude_deg": 2.5338813337382304e-05,
      "longitude_deg": 157.31332868678462,
      "height_km": 476.0344603577261,
      "semi_major_axis_km": 6853.379807825127,
      "eccentricity": 0.0001007,
      "inclination_deg": 53.1593,
      "raan_deg": 84.1287,
      "arg_perigee_deg": 81.1048,
      "mean_anomaly_deg": 279.0067,
      "mean_motion_rev_day": 15.3019071
    },
    {
      "epoch": "2026-05-03T21:12:12.481056Z",
      "apogee_km": 475.85636761412843,
      "perigee_km": 474.5405272082244,
      "latitude_deg": 2.312000841861601e-05,
      "longitude_deg": -103.59065989490179,
      "height_km": 476.09022150298415,
      "semi_major_axis_km": 6853.335447411176,
      "eccentricity": 9.6e-05,
      "inclination_deg": 53.1592,
      "raan_deg": 76.2421,
      "arg_perigee_deg": 89.4224,
      "mean_anomaly_deg": 270.6887,
      "mean_motion_rev_day": 15.30205567
    },
    {
      "epoch": "2026-05-04T20:42:32.050080Z",
      "apogee_km": 474.3763492841463,
      "perigee_km": 472.4401026032947,
      "latitude_deg": 2.9840039351842666e-05,
      "longitude_deg": -101.69042987157597,
      "height_km": 473.6491543139127,
      "semi_major_axis_km": 6851.545225943721,
      "eccentricity": 0.0001413,
      "inclination_deg": 53.1599,
      "raan_deg": 71.6892,
      "arg_perigee_deg": 47.207,
      "mean_anomaly_deg": 312.905,
      "mean_motion_rev_day": 15.30805341
    },
    {
      "epoch": "2026-05-05T20:00:03.000384Z",
      "apogee_km": 471.7301677584219,
      "perigee_km": 469.89327971071634,
      "latitude_deg": -35.28190546082781,
      "longitude_deg": -128.35620469629782,
      "height_km": 482.7747958623472,
      "semi_major_axis_km": 6848.948723734569,
      "eccentricity": 0.0001341,
      "inclination_deg": 53.1609,
      "raan_deg": 67.1722,
      "arg_perigee_deg": 96.2563,
      "mean_anomaly_deg": 217.8643,
      "mean_motion_rev_day": 15.31675938
    },
    {
      "epoch": "2026-05-06T20:00:01.999008Z",
      "apogee_km": 471.7372828609896,
      "perigee_km": 469.7702814283575,
      "latitude_deg": 49.403938758773066,
      "longitude_deg": -41.79787969703968,
      "height_km": 475.54921206733894,
      "semi_major_axis_km": 6848.890782144674,
      "eccentricity": 0.0001436,
      "inclination_deg": 53.1612,
      "raan_deg": 62.517,
      "arg_perigee_deg": 96.5945,
      "mean_anomaly_deg": 334.6125,
      "mean_motion_rev_day": 15.31695375
    }
  ]
}